{
  "type": "FeatureCollection",
  "features": [
    {
      "type": "Feature",
      "properties": {
        "norad_id": 22675,
        "name": "COSMOS 2251",
        "group": "cosmos-2251-debris",
        "lat": 60.92201940087693,
        "lon": 117.6150736023758,
        "alt_km": 766.6404041429032,
        "timestamp": "2025-12-05T18:53:13.674036+00:00",
        "meta_object_name": "COSMOS 2251",
        "meta_object_id": "1993-036A",
        "meta_epoch": "2025-12-05T06:37:47.574048",
        "meta_mean_motion": 14.33201224,
        "meta_eccentricity": 0.00237308,
        "meta_inclination": 74.0394,
        "meta_ra_of_asc_node": 329.5212,
        "meta_arg_of_pericenter": 54.1188,
        "meta_mean_anomaly": 306.2162,
        "meta_ephemeris_type": 0,
        "meta_classification_type": "U",
        "meta_norad_cat_id": 22675,
        "meta_element_set_no": 999,
        "meta_rev_at_epoch": 69666,
        "meta_bstar": 9.3399638e-05,
        "meta_mean_motion_dot": 2.32e-06,
        "meta_mean_motion_ddot": 0,
        "tle_line1": "1 22675U 93036A   25339.27624507  .00000232  00000+0  93400-4 0  9994",
        "tle_line2": "2 22675  74.0394 329.5212 0023730  54.1188 306.2162 14.33201224696662"
      },
      "geometry": {
        "type": "Point",
        "coordinates": [
          117.6150736023758,
          60.92201940087693
        ]
      }
    },
    {
      "type": "Feature",
      "properties": {
        "norad_id": 33757,
        "name": "COSMOS 2251 DEB",
        "group": "cosmos-2251-debris",
        "lat": 10.700299660001319,
        "lon": 153.20350993355675,
        "alt_km": 794.9483220675493,
        "timestamp": "2025-12-05T18:53:13.674083+00:00",
        "meta_object_name": "COSMOS 2251 DEB",
        "meta_object_id": "1993-036E",
        "meta_epoch": "2025-12-05T06:51:27.033120",
        "meta_mean_motion": 14.32578022,
        "meta_eccentricity": 0.00149649,
        "meta_inclination": 74.0367,
        "meta_ra_of_asc_node": 337.2186,
        "meta_arg_of_pericenter": 351.9316,
        "meta_mean_anomaly": 112.8461,
        "meta_ephemeris_type": 0,
        "meta_classification_type": "U",
        "meta_norad_cat_id": 33757,
        "meta_element_set_no": 999,
        "meta_rev_at_epoch": 87889,
        "meta_bstar": 8.167443e-05,
        "meta_mean_motion_dot": 1.96e-06,
        "meta_mean_motion_ddot": 0,
        "tle_line1": "1 33757U 93036E   25339.28572955  .00000196  00000+0  81674-4 0  9996",
        "tle_line2": "2 33757  74.0367 337.2186 0014964 351.9316 112.8461 14.32578022878893"
      },
      "geometry": {
        "type": "Point",
        "coordinates": [
          153.20350993355675,
          10.700299660001319
        ]
      }
    },
    {
      "type": "Feature",
      "properties": {
        "norad_id": 33758,
        "name": "COSMOS 2251 DEB",
        "group": "cosmos-2251-debris",
        "lat": -0.41675414176390785,
        "lon": -131.99430711385676,
        "alt_km": 717.9317999435307,
        "timestamp": "2025-12-05T18:53:13.674101+00:00",
        "meta_object_name": "COSMOS 2251 DEB",
        "meta_object_id": "1993-036F",
        "meta_epoch": "2025-12-05T04:34:40.872576",
        "meta_mean_motion": 14.51519877,
        "meta_eccentricity": 0.00175561,
        "meta_inclination": 74.0288,
        "meta_ra_of_asc_node": 229.2474,
        "meta_arg_of_pericenter": 296.6032,
        "meta_mean_anomaly": 188.6657,
        "meta_ephemeris_type": 0,
        "meta_classification_type": "U",
        "meta_norad_cat_id": 33758,
        "meta_element_set_no": 999,
        "meta_rev_at_epoch": 88195,
        "meta_bstar": 0.0017448831,
        "meta_mean_motion_dot": 6.971e-05,
        "meta_mean_motion_ddot": 0,
        "tle_line1": "1 33758U 93036F   25339.19075084  .00006971  00000+0  17449-2 0  9992",
        "tle_line2": "2 33758  74.0288 229.2474 0017556 296.6032 188.6657 14.51519877881959"
      },
      "geometry": {
        "type": "Point",
        "coordinates": [
          -131.99430711385676,
          -0.41675414176390785
        ]
      }
    },
    {
      "type": "Feature",
      "properties": {
        "norad_id": 33760,
        "name": "COSMOS 2251 DEB",
        "group": "cosmos-2251-debris",
        "lat": -20.67472298638877,
        "lon": -71.98617899741207,
        "alt_km": 769.8852116426078,
        "timestamp": "2025-12-05T18:53:13.674114+00:00",
        "meta_object_name": "COSMOS 2251 DEB",
        "meta_object_id": "1993-036H",
        "meta_epoch": "2025-12-05T07:58:55.057152",
        "meta_mean_motion": 14.35664545,
        "meta_eccentricity": 0.00195579,
        "meta_inclination": 74.0317,
        "meta_ra_of_asc_node": 295.0504,
        "meta_arg_of_pericenter": 35.5072,
        "meta_mean_anomaly": 115.7617,
        "meta_ephemeris_type": 0,
        "meta_classification_type": "U",
        "meta_norad_cat_id": 33760,
        "meta_element_set_no": 999,
        "meta_rev_at_epoch": 88018,
        "meta_bstar": 0.00020515584,
        "meta_mean_motion_dot": 5.67e-06,
        "meta_mean_motion_ddot": 0,
        "tle_line1": "1 33760U 93036H   25339.33258168  .00000567  00000+0  20516-3 0  9992",
        "tle_line2": "2 33760  74.0317 295.0504 0019557  35.5072 115.7617 14.35664545880183"
      },
      "geometry": {
        "type": "Point",
        "coordinates": [
          -71.98617899741207,
          -20.67472298638877
        ]
      }
    },
    {
      "type": "Feature",
      "properties": {
        "norad_id": 33761,
        "name": "COSMOS 2251 DEB",
        "group": "cosmos-2251-debris",
        "lat": 72.87155808121256,
        "lon": 16.81794370457314,
        "alt_km": 748.3893846224346,
        "timestamp": "2025-12-05T18:53:13.674126+00:00",
        "meta_object_name": "COSMOS 2251 DEB",
        "meta_object_id": "1993-036J",
        "meta_epoch": "2025-12-04T21:04:01.127712",
        "meta_mean_motion": 14.42504735,
        "meta_eccentricity": 0.0022795,
        "meta_inclination": 74.037,
        "meta_ra_of_asc_node": 266.7483,
        "meta_arg_of_pericenter": 348.175,
        "meta_mean_anomaly": 68.3837,
        "meta_ephemeris_type": 0,
        "meta_classification_type": "U",
        "meta_norad_cat_id": 33761,
        "meta_element_set_no": 999,
        "meta_rev_at_epoch": 88121,
        "meta_bstar": 0.0010906,
        "meta_mean_motion_dot": 3.601e-05,
        "meta_mean_motion_ddot": 0,
        "tle_line1": "1 33761U 93036J   25338.87779083  .00003601  00000+0  10906-2 0  9998",
        "tle_line2": "2 33761  74.0370 266.7483 0022795 348.1750  68.3837 14.42504735881212"
      },
      "geometry": {
        "type": "Point",
        "coordinates": [
          16.81794370457314,
          72.87155808121256
        ]
      }
    },
    {
      "type": "Feature",
      "properties": {
        "norad_id": 33762,
        "name": "COSMOS 2251 DEB",
        "group": "cosmos-2251-debris",
        "lat": -31.904441428507237,
        "lon": -47.52243920839837,
        "alt_km": 779.8803651977878,
        "timestamp": "2025-12-05T18:53:13.674137+00:00",
        "meta_object_name": "COSMOS 2251 DEB",
        "meta_object_id": "1993-036K",
        "meta_epoch": "2025-12-05T07:50:42.344736",
        "meta_mean_motion": 14.33660112,
        "meta_eccentricity": 0.00147039,
        "meta_inclination": 74.0413,
        "meta_ra_of_asc_node": 323.58,
        "meta_arg_of_pericenter": 27.2501,
        "meta_mean_anomaly": 86.0231,
        "meta_ephemeris_type": 0,
        "meta_classification_type": "U",
        "meta_norad_cat_id": 33762,
        "meta_element_set_no": 999,
        "meta_rev_at_epoch": 87941,
        "meta_bstar": 9.1401128e-05,
        "meta_mean_motion_dot": 2.28e-06,
        "meta_mean_motion_ddot": 0,
        "tle_line1": "1 33762U 93036K   25339.32687899  .00000228  00000+0  91401-4 0  9996",
        "tle_line2": "2 33762  74.0413 323.5800 0014703  27.2501  86.0231 14.33660112879411"
      },
      "geometry": {
        "type": "Point",
        "coordinates": [
          -47.52243920839837,
          -31.904441428507237
        ]
      }
    },
    {
      "type": "Feature",
      "properties": {
        "norad_id": 33764,
        "name": "COSMOS 2251 DEB",
        "group": "cosmos-2251-debris",
        "lat": -37.33727223999215,
        "lon": -87.11892848750254,
        "alt_km": 759.8813250730609,
        "timestamp": "2025-12-05T18:53:13.674148+00:00",
        "meta_object_name": "COSMOS 2251 DEB",
        "meta_object_id": "1993-036M",
        "meta_epoch": "2025-12-05T08:08:50.697888",
        "meta_mean_motion": 14.39484318,
        "meta_eccentricity": 0.00242185,
        "meta_inclination": 74.0333,
        "meta_ra_of_asc_node": 286.322,
        "meta_arg_of_pericenter": 253.2835,
        "meta_mean_anomaly": 269.425,
        "meta_ephemeris_type": 0,
        "meta_classification_type": "U",
        "meta_norad_cat_id": 33764,
        "meta_element_set_no": 999,
        "meta_rev_at_epoch": 88050,
        "meta_bstar": 0.00067069589,
        "meta_mean_motion_dot": 2.071e-05,
        "meta_mean_motion_ddot": 0,
        "tle_line1": "1 33764U 93036M   25339.33947567  .00002071  00000+0  67070-3 0  9992",
        "tle_line2": "2 33764  74.0333 286.3220 0024218 253.2835 269.4250 14.39484318880507"
      },
      "geometry": {
        "type": "Point",
        "coordinates": [
          -87.11892848750254,
          -37.33727223999215
        ]
      }
    }
  ]
}